USA 134                 
1 25019U 97065A   26087.87898484 -.00000074  00000+0  00000+0 0  9993
2 25019  12.6905  22.3187 0006571 316.7634  51.2434  1.00268868 32153
